{"type": "FeatureCollection", "features": [ {"type": "Feature", "properties": {"norad_id": 43648, "name": "BEIDOU-3 M15 (C34)", "group": "gnss", "lat": 4.001091832819428, "lon": 123.54721680370923, "alt_km": 21537.16526645932, "timestamp": "2025-12-14T16:47:40.927214+00:00", "meta": {"OBJECT_NAME": "BEIDOU-3 M15 (C34)", "OBJECT_ID": "2018-078B", "EPOCH": "2025-12-13T08:45:25.856640", "MEAN_MOTION": 1.86231926, "ECCENTRICITY": 0.00036912, "INCLINATION": 54.2569, "RA_OF_ASC_NODE": 306.4995, "ARG_OF_PERICENTER": 17.9309, "MEAN_ANOMALY": 342.0718, "EPHEMERIS_TYPE": 0, "CLASSIFICATION_TYPE": "U", "NORAD_CAT_ID": 43648, "ELEMENT_SET_NO": 999, "REV_AT_EPOCH": 4871, "BSTAR": 0, "MEAN_MOTION_DOT": -9.7e-07, "MEAN_MOTION_DDOT": 0}, "tle": {"line1": "1 43648U 18078B   25347.36488260 -.00000097  00000+0  00000+0 0  9992", "line2": "2 43648  54.2569 306.4995 0003691  17.9309 342.0718  1.86231926 48715"}}, "geometry": {"type": "Point", "coordinates": [123.54721680370923, 4.001091832819428]}}, {"type": "Feature", "properties": {"norad_id": 43683, "name": "BEIDOU-3 G1 (C59)", "group": "gnss", "lat": 0.5875687282515947, "lon": 115.5634947250591, "alt_km": 35781.608515544525, "timestamp": "2025-12-14T16:47:40.927227+00:00", "meta": {"OBJECT_NAME": "BEIDOU-3 G1 (C59)", "OBJECT_ID": "2018-085A", "EPOCH": "2025-12-14T00:23:20.202720", "MEAN_MOTION": 1.00270448, "ECCENTRICITY": 0.00016588, "INCLINATION": 2.6111, "RA_OF_ASC_NODE": 102.9368, "ARG_OF_PERICENTER": 58.511, "MEAN_ANOMALY": 67.3925, "EPHEMERIS_TYPE": 0, "CLASSIFICATION_TYPE": "U", "NORAD_CAT_ID": 43683, "ELEMENT_SET_NO": 999, "REV_AT_EPOCH": 2620, "BSTAR": 0, "MEAN_MOTION_DOT": -2.61e-06, "MEAN_MOTION_DDOT": 0}, "tle": {"line1": "1 43683U 18085A   25348.01620605 -.00000261  00000+0  00000+0 0  9996", "line2": "2 43683   2.6111 102.9368 0001658  58.5110  67.3925  1.00270448 26204"}}, "geometry": {"type": "Point", "coordinates": [115.5634947250591, 0.5875687282515947]}}, {"type": "Feature", "properties": {"norad_id": 43687, "name": "COSMOS 2529 (757)", "group": "gnss", "lat": -42.08477593499562, "lon": 173.0370989783018, "alt_km": 19125.300267459643, "timestamp": "2025-12-14T16:47:40.927239+00:00", "meta": {"OBJECT_NAME": "COSMOS 2529 (757)", "OBJECT_ID": "2018-086A", "EPOCH": "2025-12-11T22:43:29.696736", "MEAN_MOTION": 2.1310189, "ECCENTRICITY": 0.00071924, "INCLINATION": 64.292, "RA_OF_ASC_NODE": 198.9152, "ARG_OF_PERICENTER": 254.1119, "MEAN_ANOMALY": 105.8792, "EPHEMERIS_TYPE": 0, "CLASSIFICATION_TYPE": "U", "NORAD_CAT_ID": 43687, "ELEMENT_SET_NO": 999, "REV_AT_EPOCH": 5529, "BSTAR": 0, "MEAN_MOTION_DOT": 6.1e-07, "MEAN_MOTION_DDOT": 0}, "tle": {"line1": "1 43687U 18086A   25345.94687149  .00000061  00000+0  00000+0 0  9993", "line2": "2 43687  64.2920 198.9152 0007192 254.1119 105.8792  2.13101890 55298"}}, "geometry": {"type": "Point", "coordinates": [173.0370989783018, -42.08477593499562]}}, {"type": "Feature", "properties": {"norad_id": 43706, "name": "BEIDOU-3 M17 (C36)", "group": "gnss", "lat": 49.03657628454505, "lon": -115.10529072240452, "alt_km": 21531.444065900454, "timestamp": "2025-12-14T16:47:40.927250+00:00", "meta": {"OBJECT_NAME": "BEIDOU-3 M17 (C36)", "OBJECT_ID": "2018-093A", "EPOCH": "2025-12-12T04:17:11.485824", "MEAN_MOTION": 1.86228421, "ECCENTRICITY": 0.00062217, "INCLINATION": 54.1726, "RA_OF_ASC_NODE": 188.6407, "ARG_OF_PERICENTER": 307.45, "MEAN_ANOMALY": 230.9206, "EPHEMERIS_TYPE": 0, "CLASSIFICATION_TYPE": "U", "NORAD_CAT_ID": 43706, "ELEMENT_SET_NO": 999, "REV_AT_EPOCH": 4805, "BSTAR": 0, "MEAN_MOTION_DOT": 7.8e-07, "MEAN_MOTION_DDOT": 0}, "tle": {"line1": "1 43706U 18093A   25346.17860516  .00000078  00000+0  00000+0 0  9998", "line2": "2 43706  54.1726 188.6407 0006221 307.4500 230.9206  1.86228421 48054"}}, "geometry": {"type": "Point", "coordinates": [-115.10529072240452, 49.03657628454505]}}, {"type": "Feature", "properties": {"norad_id": 43707, "name": "BEIDOU-3 M18 (C37)", "group": "gnss", "lat": 14.86306859542768, "lon": -2.501947411257326, "alt_km": 21544.083859205482, "timestamp": "2025-12-14T16:47:40.927261+00:00", "meta": {"OBJECT_NAME": "BEIDOU-3 M18 (C37)", "OBJECT_ID": "2018-093B", "EPOCH": "2025-12-12T20:21:07.427232", "MEAN_MOTION": 1.86226583, "ECCENTRICITY": 0.00063344, "INCLINATION": 54.1732, "RA_OF_ASC_NODE": 188.6097, "ARG_OF_PERICENTER": 352.9631, "MEAN_ANOMALY": 7.0898, "EPHEMERIS_TYPE": 0, "CLASSIFICATION_TYPE": "U", "NORAD_CAT_ID": 43707, "ELEMENT_SET_NO": 999, "REV_AT_EPOCH": 4806, "BSTAR": 0, "MEAN_MOTION_DOT": 8.8e-07, "MEAN_MOTION_DDOT": 0}, "tle": {"line1": "1 43707U 18093B   25346.84800263  .00000088  00000+0  00000+0 0  9997", "line2": "2 43707  54.1732 188.6097 0006334 352.9631   7.0898  1.86226583 48060"}}, "geometry": {"type": "Point", "coordinates": [-2.501947411257326, 14.86306859542768]}}, {"type": "Feature", "properties": {"norad_id": 43873, "name": "GPS BIII-1  (PRN 04)", "group": "gnss", "lat": 46.61498113231089, "lon": -127.0111225891346, "alt_km": 20154.36348187253, "timestamp": "2025-12-14T16:47:40.927274+00:00", "meta": {"OBJECT_NAME": "GPS BIII-1  (PRN 04)", "OBJECT_ID": "2018-109A", "EPOCH": "2025-12-12T07:06:10.304640", "MEAN_MOTION": 2.00553613, "ECCENTRICITY": 0.0037314, "INCLINATION": 55.5671, "RA_OF_ASC_NODE": 99.5642, "ARG_OF_PERICENTER": 194.9554, "MEAN_ANOMALY": 348.038, "EPHEMERIS_TYPE": 0, "CLASSIFICATION_TYPE": "U", "NORAD_CAT_ID": 43873, "ELEMENT_SET_NO": 999, "REV_AT_EPOCH": 5132, "BSTAR": 0, "MEAN_MOTION_DOT": -2e-08, "MEAN_MOTION_DDOT": 0}, "tle": {"line1": "1 43873U 18109A   25346.29595260 -.00000002  00000+0  00000+0 0  9993", "line2": "2 43873  55.5671  99.5642 0037314 194.9554 348.0380  2.00553613 51328"}}, "geometry": {"type": "Point", "coordinates": [-127.0111225891346, 46.61498113231089]}}, {"type": "Feature", "properties": {"norad_id": 44204, "name": "BEIDOU-3 IGSO-1 (C38)", "group": "gnss", "lat": 39.845414793995396, "lon": 70.41084245982788, "alt_km": 35902.726721603845, "timestamp": "2025-12-14T16:47:40.927286+00:00", "meta": {"OBJECT_NAME": "BEIDOU-3 IGSO-1 (C38)", "OBJECT_ID": "2019-023A", "EPOCH": "2025-11-19T14:15:02.708640", "MEAN_MOTION": 1.00252177, "ECCENTRICITY": 0.0026966, "INCLINATION": 58.4003, "RA_OF_ASC_NODE": 39.8168, "ARG_OF_PERICENTER": 221.2202, "MEAN_ANOMALY": 126.9723, "EPHEMERIS_TYPE": 0, "CLASSIFICATION_TYPE": "U", "NORAD_CAT_ID": 44204, "ELEMENT_SET_NO": 999, "REV_AT_EPOCH": 510, "BSTAR": 0, "MEAN_MOTION_DOT": -2.26e-06, "MEAN_MOTION_DDOT": 0}, "tle": {"line1": "1 44204U 19023A   25323.59378135 -.00000226  00000+0  00000+0 0  9994", "line2": "2 44204  58.4003  39.8168 0026966 221.2202 126.9723  1.00252177  5102"}}, "geometry": {"type": "Point", "coordinates": [70.41084245982788, 39.845414793995396]}}, {"type": "Feature", "properties": {"norad_id": 44231, "name": "BEIDOU-2 G8 (C01)", "group": "gnss", "lat": 1.1986709568506064, "lon": 120.0348219131349, "alt_km": 35818.50734941623, "timestamp": "2025-12-14T16:47:40.927302+00:00", "meta": {"OBJECT_NAME": "BEIDOU-2 G8 (C01)", "OBJECT_ID": "2019-027A", "EPOCH": "2025-12-13T20:59:07.460160", "MEAN_MOTION": 1.00267711, "ECCENTRICITY": 0.00087425, "INCLINATION": 1.6651, "RA_OF_ASC_NODE": 74.7136, "ARG_OF_PERICENTER": 256.7501, "MEAN_ANOMALY": 210.5987, "EPHEMERIS_TYPE": 0, "CLASSIFICATION_TYPE": "U", "NORAD_CAT_ID": 44231, "ELEMENT_SET_NO": 999, "REV_AT_EPOCH": 2422, "BSTAR": 0, "MEAN_MOTION_DOT": -2.32e-06, "MEAN_MOTION_DDOT": 0}, "tle": {"line1": "1 44231U 19027A   25347.87439190 -.00000232  00000+0  00000+0 0  9991", "line2": "2 44231   1.6651  74.7136 0008742 256.7501 210.5987  1.00267711 24227"}}, "geometry": {"type": "Point", "coordinates": [120.0348219131349, 1.1986709568506064]}}, {"type": "Feature", "properties": {"norad_id": 44299, "name": "COSMOS 2534 (758)", "group": "gnss", "lat": 64.10905146304977, "lon": -79.5864047072432, "alt_km": 19144.90647236277, "timestamp": "2025-12-14T16:47:40.927317+00:00", "meta": {"OBJECT_NAME": "COSMOS 2534 (758)", "OBJECT_ID": "2019-030A", "EPOCH": "2025-12-10T14:34:24.563136", "MEAN_MOTION": 2.13102261, "ECCENTRICITY": 0.0008999, "INCLINATION": 64.3653, "RA_OF_ASC_NODE": 198.9649, "ARG_OF_PERICENTER": 283.4628, "MEAN_ANOMALY": 263.2195, "EPHEMERIS_TYPE": 0, "CLASSIFICATION_TYPE": "U", "NORAD_CAT_ID": 44299, "ELEMENT_SET_NO": 999, "REV_AT_EPOCH": 5090, "BSTAR": 0, "MEAN_MOTION_DOT": 4.7e-07, "MEAN_MOTION_DDOT": 0}, "tle": {"line1": "1 44299U 19030A   25344.60722874  .00000047  00000+0  00000+0 0  9994", "line2": "2 44299  64.3653 198.9649 0008999 283.4628 263.2195  2.13102261 50901"}}, "geometry": {"type": "Point", "coordinates": [-79.5864047072432, 64.10905146304977]}}, {"type": "Feature", "properties": {"norad_id": 44337, "name": "BEIDOU-3 IGSO-2 (C39)", "group": "gnss", "lat": -48.0821961377012, "lon": 109.67422211599919, "alt_km": 35799.00329389842, "timestamp": "2025-12-14T16:47:40.927329+00:00", "meta": {"OBJECT_NAME": "BEIDOU-3 IGSO-2 (C39)", "OBJECT_ID": "2019-035A", "EPOCH": "2025-12-13T21:01:33.834720", "MEAN_MOTION": 1.00271067, "ECCENTRICITY": 0.00372664, "INCLINATION": 55.226, "RA_OF_ASC_NODE": 160.4907, "ARG_OF_PERICENTER": 202.3075, "MEAN_ANOMALY": 154.8952, "EPHEMERIS_TYPE": 0, "CLASSIFICATION_TYPE": "U", "NORAD_CAT_ID": 44337, "ELEMENT_SET_NO": 999, "REV_AT_EPOCH": 2380, "BSTAR": 0, "MEAN_MOTION_DOT": -3.9e-07, "MEAN_MOTION_DDOT": 0}, "tle": {"line1": "1 44337U 19035A   25347.87608605 -.00000039  00000+0  00000+0 0  9991", "line2": "2 44337  55.2260 160.4907 0037266 202.3075 154.8952  1.00271067 23804"}}, "geometry": {"type": "Point", "coordinates": [109.67422211599919, -48.0821961377012]}}]}